STARLINK-1727           
1 46335U 20062L   26068.50002314  .00118866  00000+0  10154-2 0  9990
2 46335  53.0432 337.1419 0003939 313.9108   6.0762 15.68639872  5974
STARLINK-11117 [DTC]    
1 59761U 24091J   26068.55370943 -.00000838  00000+0 -20612-5 0  9998
2 59761  53.1576 206.8111 0001060  58.1354 301.9767 15.69704614105494
